0 CALSPHERE 4(A)
1 01520U 65065H   13283.18099133  .00000128  00000-0  23208-3 0  1228
2 01520 090.1284 108.4040 0069205 204.9102 200.4173 13.35520403344588
0 CALSPHERE 4(A)
1 01520U 65065H   13285.50545124  .00000089  00000-0  15663-3 0  1235
2 01520 090.1282 108.4336 0069410 198.3397 216.1448 13.35521092344892
0 CALSPHERE 4(A)
1 01520U 65065H   13287.76879771  .00000087  00000-0  15208-3 0  1247
2 01520 090.1282 108.4624 0069639 191.9501 298.0431 13.35521788345198
0 CALSPHERE 4(A)
1 01520U 65065H   13289.79134801  .00000098  00000-0  17308-3 0  1256
2 01520 090.1285 108.4881 0069786 186.2772 302.1918 13.35522058345464
0 CALSPHERE 4(A)
1 01520U 65065H   13291.81483076  .00000093  00000-0  16381-3 0  1269
2 01520 090.1287 108.5140 0069973 180.6025 310.8247 13.35522444345732
0 CALSPHERE 4(A)
1 01520U 65065H   13293.83262947  .00000121  00000-0  21817-3 0  1278
2 01520 090.1288 108.5397 0070138 174.9667 292.1093 13.35522681346005
0 CALSPHERE 4(A)
1 01520U 65065H   13295.85613984  .00000156  00000-0  28572-3 0  1287
2 01520 090.1288 108.5656 0070315 169.3195 300.8542 13.35522996346278
